OBJECT_NAME,OBJECT_ID,EPOCH,MEAN_MOTION,ECCENTRICITY,INCLINATION,RA_OF_ASC_NODE,ARG_OF_PERICENTER,MEAN_ANOMALY,EPHEMERIS_TYPE,CLASSIFICATION_TYPE,NORAD_CAT_ID,ELEMENT_SET_NO,REV_AT_EPOCH,BSTAR,MEAN_MOTION_DOT,MEAN_MOTION_DDOT
HAWK-10B,2024-149CF,2026-06-08T22:41:04.526592,14.96486149,.0006699,97.6810,235.3615,115.8397,244.3516,0,U,60545,999,9875,.16183E-3,.1781E-4,0
ICEYE-X39,2024-149CG,2026-06-09T04:54:47.625696,14.99847255,.0004456,97.6761,237.3377,139.3494,220.8063,0,U,60546,999,9892,.21967E-3,.2662E-4,0
UMBRA-10,2024-149CH,2026-06-09T00:35:26.245248,15.17793802,.0001153,97.6969,247.1194,73.7397,286.3962,0,U,60547,999,9949,.63003E-3,.12677E-3,0
ICEYE-X33,2024-149CJ,2026-06-08T18:27:17.065728,15.00885634,.0001314,97.7254,238.9568,108.3794,251.7572,0,U,60548,999,9894,.33513E-3,.4205E-4,0
ICEYE-X40,2024-149CK,2026-06-08T18:03:01.179072,14.97910174,.0006221,97.6767,236.3845,109.1880,251.0016,0,U,60549,999,9881,.11413E-3,.1287E-4,0
SATELIOT_1,2024-149CL,2026-06-08T17:51:20.462112,14.98030333,.0007893,97.6736,235.7826,104.3075,255.9024,0,U,60550,999,9880,.20582E-3,.2375E-4,0
BRO-14,2024-149CM,2026-06-08T18:26:45.338784,14.96159582,.0008167,97.6877,235.6974,119.3294,240.8744,0,U,60551,999,9873,.11495E-3,.1238E-4,0
SATELIOT_3,2024-149CN,2026-06-09T04:29:40.032096,14.98027457,.0006274,97.6825,237.0033,104.5310,255.6608,0,U,60552,999,9888,.106E-3,.1195E-4,0
BRO-15,2024-149CP,2026-06-08T18:01:17.048064,14.96126513,.000946,97.6800,235.2897,113.5181,246.7035,0,U,60553,999,9874,.12097E-3,.1305E-4,0
UM5-RIBAT,2024-149CQ,2026-06-09T03:20:50.453376,15.01030628,.0003848,97.6638,238.0484,74.2705,285.8943,0,U,60554,999,9898,.20304E-3,.2534E-4,0
UM5-EOSAT,2024-149CR,2026-06-09T02:35:51.916128,15.01465660,.0008562,97.6680,238.9415,138.1992,221.9888,0,U,60555,999,9900,.27487E-3,.3494E-4,0
LASARSAT,2024-247Q,2026-06-08T21:36:08.997696,15.45852185,.0008365,44.9750,308.7653,285.6781,74.3185,0,U,62391,999,8203,.6942E-3,.34289E-3,0
CROCUBE,2024-247T,2026-06-09T02:26:10.926240,15.47679715,.0008206,44.9725,305.0974,290.1474,69.8533,0,U,62394,999,8209,.61925E-3,.3255E-3,0
TEVEL2-4,2025-052D,2026-06-07T15:52:08.883552,15.34277122,.00043543,97.3922,55.0407,120.1889,239.9786,0,U,63213,999,6865,.6171933E-3,.20438E-3,0
TEVEL2-5,2025-052E,2026-06-09T04:20:24.994176,15.34159706,.0004422,97.3911,56.5103,119.9533,240.2150,0,U,63214,999,6888,.49157E-3,.16193E-3,0
TEVEL2-6,2025-052F,2026-06-08T05:09:00.372960,15.34088018,.0004415,97.3912,55.5275,121.5489,238.6185,0,U,63215,999,6873,.47787E-3,.15702E-3,0
TEVEL2-1,2025-052H,2026-06-08T05:46:22.009728,15.33568729,.0004189,97.3889,55.1881,130.0273,230.1338,0,U,63217,999,6872,.47132E-3,.15233E-3,0
TEVEL2-3,2025-052J,2026-06-08T05:39:06.501024,15.33621807,.0004279,97.3889,55.2041,131.4338,228.7272,0,U,63218,999,6872,.46859E-3,.1517E-3,0
TEVEL2-2,2025-052K,2026-06-08T16:44:35.826432,15.33595395,.000423,97.3887,55.6477,131.0442,229.1167,0,U,63219,999,6879,.56087E-3,.18164E-3,0
TEVEL2-9,2025-052AD,2026-06-08T04:57:50.158656,15.31621079,.0006909,97.3948,54.5513,156.1696,203.9867,0,U,63237,999,6865,.45172E-3,.13734E-3,0
TEVEL2-7,2025-052AE,2026-06-08T05:54:17.410176,15.31335451,.00070046,97.3948,54.5102,156.9865,203.1691,0,U,63238,999,6865,.45613902E-3,.13747E-3,0
TEVEL2-8,2025-052AF,2026-06-08T10:48:19.844352,15.31323830,.00070622,97.3950,54.6910,156.6692,203.4871,0,U,63239,999,6868,.46162553E-3,.13909E-3,0
FORESAIL-1 PRIME,2025-276DS,2026-06-08T04:01:00.773184,15.18619338,.0003714,97.4199,232.6039,122.1307,238.0288,0,U,66778,999,2903,.21751E-3,.4435E-4,0
