HAWK-10B                
1 60545U 24149CF  26159.94519128  .00001781  00000+0  16183-3 0  9990
2 60545  97.6810 235.3615 0006699 115.8397 244.3516 14.96486149 98758
ICEYE-X39               
1 60546U 24149CG  26160.20471789  .00002662  00000+0  21967-3 0  9997
2 60546  97.6761 237.3377 0004456 139.3494 220.8063 14.99847255 98926
UMBRA-10                
1 60547U 24149CH  26160.02460932  .00012677  00000+0  63003-3 0  9990
2 60547  97.6969 247.1194 0001153  73.7397 286.3962 15.17793802 99494
ICEYE-X33               
1 60548U 24149CJ  26159.76894752  .00004205  00000+0  33513-3 0  9992
2 60548  97.7254 238.9568 0001314 108.3794 251.7572 15.00885634 98940
ICEYE-X40               
1 60549U 24149CK  26159.75209698  .00001287  00000+0  11413-3 0  9993
2 60549  97.6767 236.3845 0006221 109.1880 251.0016 14.97910174 98811
SATELIOT_1              
1 60550U 24149CL  26159.74398683  .00002375  00000+0  20582-3 0  9993
2 60550  97.6736 235.7826 0007893 104.3075 255.9024 14.98030333 98802
BRO-14                  
1 60551U 24149CM  26159.76858031  .00001238  00000+0  11495-3 0  9994
2 60551  97.6877 235.6974 0008167 119.3294 240.8744 14.96159582 98736
SATELIOT_3              
1 60552U 24149CN  26160.18726889  .00001195  00000+0  10600-3 0  9997
2 60552  97.6825 237.0033 0006274 104.5310 255.6608 14.98027457 98880
BRO-15                  
1 60553U 24149CP  26159.75089176  .00001305  00000+0  12097-3 0  9995
2 60553  97.6800 235.2897 0009460 113.5181 246.7035 14.96126513 98749
UM5-RIBAT               
1 60554U 24149CQ  26160.13947284  .00002534  00000+0  20304-3 0  9998
2 60554  97.6638 238.0484 0003848  74.2705 285.8943 15.01030628 98987
UM5-EOSAT               
1 60555U 24149CR  26160.10823977  .00003494  00000+0  27487-3 0  9993
2 60555  97.6680 238.9415 0008562 138.1992 221.9888 15.01465660 99005
LASARSAT                
1 62391U 24247Q   26159.90010414  .00034289  00000+0  69420-3 0  9991
2 62391  44.9750 308.7653 0008365 285.6781  74.3185 15.45852185 82038
CROCUBE                 
1 62394U 24247T   26160.10151535  .00032550  00000+0  61925-3 0  9999
2 62394  44.9725 305.0974 0008206 290.1474  69.8533 15.47679715 82093
TEVEL2-4                
1 63213U 25052D   26158.66121393  .00020438  00000+0  61719-3 0  9995
2 63213  97.3922  55.0407 0004354 120.1889 239.9786 15.34277122 68658
TEVEL2-5                
1 63214U 25052E   26160.18084484  .00016193  00000+0  49157-3 0  9990
2 63214  97.3911  56.5103 0004422 119.9533 240.2150 15.34159706 68886
TEVEL2-6                
1 63215U 25052F   26159.21458765  .00015702  00000+0  47787-3 0  9992
2 63215  97.3912  55.5275 0004415 121.5489 238.6185 15.34088018 68738
TEVEL2-1                
1 63217U 25052H   26159.24053252  .00015233  00000+0  47132-3 0  9992
2 63217  97.3889  55.1881 0004189 130.0273 230.1338 15.33568729 68723
TEVEL2-3                
1 63218U 25052J   26159.23549191  .00015170  00000+0  46859-3 0  9999
2 63218  97.3889  55.2041 0004279 131.4338 228.7272 15.33621807 68727
TEVEL2-2                
1 63219U 25052K   26159.69763688  .00018164  00000+0  56087-3 0  9999
2 63219  97.3887  55.6477 0004230 131.0442 229.1167 15.33595395 68799
TEVEL2-9                
1 63237U 25052AD  26159.20683054  .00013734  00000+0  45172-3 0  9995
2 63237  97.3948  54.5513 0006909 156.1696 203.9867 15.31621079 68659
TEVEL2-7                
1 63238U 25052AE  26159.24603484  .00013747  00000+0  45614-3 0  9994
2 63238  97.3948  54.5102 0007004 156.9865 203.1691 15.31335451 68650
TEVEL2-8                
1 63239U 25052AF  26159.45022968  .00013909  00000+0  46163-3 0  9990
2 63239  97.3950  54.6910 0007062 156.6692 203.4871 15.31323830 68685
FORESAIL-1 PRIME        
1 66778U 25276DS  26159.16737006  .00004435  00000+0  21751-3 0  9993
2 66778  97.4199 232.6039 0003714 122.1307 238.0288 15.18619338 29031
